[
    {
        "Altitude(m)": 713938.0238422762,
        "Argument of Periapsis(deg)": 0.010251109067964361,
        "Eccentricity": 0.0,
        "Inclination(deg)": 45.0,
        "Latitude(deg)": -35.604391794503485,
        "Longitude(deg)": -96.10764034143233,
        "Mean Anomaly(deg)": 304.92539498273277,
        "RAAN(deg)": 49.99032325268762,
        "Satellite Name": "Constellation 1 238",
        "Satellite Number": 238,
        "Semi-Major Axis(m)": 7083131.272910544,
        "Time(s)": 171
    },
    {
        "Altitude(m)": 713925.7162039469,
        "Argument of Periapsis(deg)": 0.010311057074209765,
        "Eccentricity": 0.0,
        "Inclination(deg)": 45.0,
        "Latitude(deg)": -35.57420338399448,
        "Longitude(deg)": -96.04723054789099,
        "Mean Anomaly(deg)": 304.9860961229827,
        "RAAN(deg)": 49.99026666352205,
        "Satellite Name": "Constellation 1 238",
        "Satellite Number": 238,
        "Semi-Major Axis(m)": 7083131.272910544,
        "Time(s)": 172
    },
    {
        "Altitude(m)": 713913.396590165,
        "Argument of Periapsis(deg)": 0.010371005080455171,
        "Eccentricity": 0.0,
        "Inclination(deg)": 45.0,
        "Latitude(deg)": -35.54398027197888,
        "Longitude(deg)": -95.98686902629723,
        "Mean Anomaly(deg)": 305.0467972632326,
        "RAAN(deg)": 49.990210074356476,
        "Satellite Name": "Constellation 1 238",
        "Satellite Number": 238,
        "Semi-Major Axis(m)": 7083131.272910544,
        "Time(s)": 173
    },
    {
        "Altitude(m)": 713901.0650452223,
        "Argument of Periapsis(deg)": 0.010430953086700577,
        "Eccentricity": 0.0,
        "Inclination(deg)": 45.0,
        "Latitude(deg)": -35.5137225219257,
        "Longitude(deg)": -95.92655574176649,
        "Mean Anomaly(deg)": 305.10749840348245,
        "RAAN(deg)": 49.990153485190916,
        "Satellite Name": "Constellation 1 238",
        "Satellite Number": 238,
        "Semi-Major Axis(m)": 7083131.272910544,
        "Time(s)": 174
    },
    {
        "Altitude(m)": 713888.7216134534,
        "Argument of Periapsis(deg)": 0.010490901092945983,
        "Eccentricity": 0.0,
        "Inclination(deg)": 45.0,
        "Latitude(deg)": -35.48343019724447,
        "Longitude(deg)": -95.86629065919266,
        "Mean Anomaly(deg)": 305.1681995437323,
        "RAAN(deg)": 49.99009689602534,
        "Satellite Name": "Constellation 1 238",
        "Satellite Number": 238,
        "Semi-Major Axis(m)": 7083131.272910544,
        "Time(s)": 175
    },
    {
        "Altitude(m)": 713876.3663392167,
        "Argument of Periapsis(deg)": 0.010550849099191389,
        "Eccentricity": 0.0,
        "Inclination(deg)": 45.0,
        "Latitude(deg)": -35.453103361285116,
        "Longitude(deg)": -95.80607374324944,
        "Mean Anomaly(deg)": 305.22890068398226,
        "RAAN(deg)": 49.99004030685977,
        "Satellite Name": "Constellation 1 238",
        "Satellite Number": 238,
        "Semi-Major Axis(m)": 7083131.272910544,
        "Time(s)": 176
    },
    {
        "Altitude(m)": 713863.9992669296,
        "Argument of Periapsis(deg)": 0.010610797105436795,
        "Eccentricity": 0.0,
        "Inclination(deg)": 45.0,
        "Latitude(deg)": -35.42274207733773,
        "Longitude(deg)": -95.74590495839165,
        "Mean Anomaly(deg)": 305.2896018242322,
        "RAAN(deg)": 49.989983717694194,
        "Satellite Name": "Constellation 1 238",
        "Satellite Number": 238,
        "Semi-Major Axis(m)": 7083131.272910544,
        "Time(s)": 177
    },
    {
        "Altitude(m)": 713851.620441029,
        "Argument of Periapsis(deg)": 0.0106707451116822,
        "Eccentricity": 0.0,
        "Inclination(deg)": 45.0,
        "Latitude(deg)": -35.39234640863224,
        "Longitude(deg)": -95.68578443695347,
        "Mean Anomaly(deg)": 305.350302964482,
        "RAAN(deg)": 49.98992712852863,
        "Satellite Name": "Constellation 1 238",
        "Satellite Number": 238,
        "Semi-Major Axis(m)": 7083131.272910544,
        "Time(s)": 178
    },
    {
        "Altitude(m)": 713839.229905994,
        "Argument of Periapsis(deg)": 0.010730693117927606,
        "Eccentricity": 0.0,
        "Inclination(deg)": 45.0,
        "Latitude(deg)": -35.361916418338645,
        "Longitude(deg)": -95.62571180676126,
        "Mean Anomaly(deg)": 305.41100410473194,
        "RAAN(deg)": 49.989870539363054,
        "Satellite Name": "Constellation 1 238",
        "Satellite Number": 238,
        "Semi-Major Axis(m)": 7083131.272910544,
        "Time(s)": 179
    },
    {
        "Altitude(m)": 713826.8277063444,
        "Argument of Periapsis(deg)": 0.01079064112417301,
        "Eccentricity": 0.0,
        "Inclination(deg)": 45.0,
        "Latitude(deg)": -35.33145216956619,
        "Longitude(deg)": -95.56568719971771,
        "Mean Anomaly(deg)": 305.4717052449819,
        "RAAN(deg)": 49.989813950197494,
        "Satellite Name": "Constellation 1 238",
        "Satellite Number": 238,
        "Semi-Major Axis(m)": 7083131.272910544,
        "Time(s)": 180
    },
    {
        "Altitude(m)": 713814.4138866339,
        "Argument of Periapsis(deg)": 0.010850589130418416,
        "Eccentricity": 0.0,
        "Inclination(deg)": 45.0,
        "Latitude(deg)": -35.30095372536359,
        "Longitude(deg)": -95.50571057941441,
        "Mean Anomaly(deg)": 305.53240638523175,
        "RAAN(deg)": 49.98975736103192,
        "Satellite Name": "Constellation 1 238",
        "Satellite Number": 238,
        "Semi-Major Axis(m)": 7083131.272910544,
        "Time(s)": 181
    },
    {
        "Altitude(m)": 713801.9884914517,
        "Argument of Periapsis(deg)": 0.01091053713666382,
        "Eccentricity": 0.0,
        "Inclination(deg)": 45.0,
        "Latitude(deg)": -35.2704211487188,
        "Longitude(deg)": -95.44578190923029,
        "Mean Anomaly(deg)": 305.5931075254816,
        "RAAN(deg)": 49.98970077186635,
        "Satellite Name": "Constellation 1 238",
        "Satellite Number": 238,
        "Semi-Major Axis(m)": 7083131.272910544,
        "Time(s)": 182
    },
    {
        "Altitude(m)": 713789.5515654249,
        "Argument of Periapsis(deg)": 0.010970485142909228,
        "Eccentricity": 0.0,
        "Inclination(deg)": 45.0,
        "Latitude(deg)": -35.23985450255857,
        "Longitude(deg)": -95.38590115233269,
        "Mean Anomaly(deg)": 305.65380866573156,
        "RAAN(deg)": 49.98964418270078,
        "Satellite Name": "Constellation 1 238",
        "Satellite Number": 238,
        "Semi-Major Axis(m)": 7083131.272910544,
        "Time(s)": 183
    },
    {
        "Altitude(m)": 713777.1031532171,
        "Argument of Periapsis(deg)": 0.011030433149154634,
        "Eccentricity": 0.0,
        "Inclination(deg)": 45.0,
        "Latitude(deg)": -35.20925384974849,
        "Longitude(deg)": -95.3260682716789,
        "Mean Anomaly(deg)": 305.7145098059815,
        "RAAN(deg)": 49.98958759353522,
        "Satellite Name": "Constellation 1 238",
        "Satellite Number": 238,
        "Semi-Major Axis(m)": 7083131.272910544,
        "Time(s)": 184
    },
    {
        "Altitude(m)": 713764.6432995294,
        "Argument of Periapsis(deg)": 0.01109038115540004,
        "Eccentricity": 0.0,
        "Inclination(deg)": 45.0,
        "Latitude(deg)": -35.1786192530928,
        "Longitude(deg)": -95.26628339811448,
        "Mean Anomaly(deg)": 305.77521094623137,
        "RAAN(deg)": 49.989531004369645,
        "Satellite Name": "Constellation 1 238",
        "Satellite Number": 238,
        "Semi-Major Axis(m)": 7083131.272910544,
        "Time(s)": 185
    },
    {
        "Altitude(m)": 713752.1720490931,
        "Argument of Periapsis(deg)": 0.011150329161645444,
        "Eccentricity": 0.0,
        "Inclination(deg)": 45.0,
        "Latitude(deg)": -35.14795077533419,
        "Longitude(deg)": -95.20654615798541,
        "Mean Anomaly(deg)": 305.83591208648124,
        "RAAN(deg)": 49.98947441520407,
        "Satellite Name": "Constellation 1 238",
        "Satellite Number": 238,
        "Semi-Major Axis(m)": 7083131.272910544,
        "Time(s)": 186
    },
    {
        "Altitude(m)": 713739.689446684,
        "Argument of Periapsis(deg)": 0.01121027716789085,
        "Eccentricity": 0.0,
        "Inclination(deg)": 45.0,
        "Latitude(deg)": -35.11724847915336,
        "Longitude(deg)": -95.14685668172297,
        "Mean Anomaly(deg)": 305.8966132267311,
        "RAAN(deg)": 49.9894178260385,
        "Satellite Name": "Constellation 1 238",
        "Satellite Number": 238,
        "Semi-Major Axis(m)": 7083131.272910544,
        "Time(s)": 187
    },
    {
        "Altitude(m)": 713727.1955371096,
        "Argument of Periapsis(deg)": 0.011270225174136258,
        "Eccentricity": 0.0,
        "Inclination(deg)": 45.0,
        "Latitude(deg)": -35.0865124271691,
        "Longitude(deg)": -95.0872149314556,
        "Mean Anomaly(deg)": 305.95731436698105,
        "RAAN(deg)": 49.98936123687294,
        "Satellite Name": "Constellation 1 238",
        "Satellite Number": 238,
        "Semi-Major Axis(m)": 7083131.272910544,
        "Time(s)": 188
    },
    {
        "Altitude(m)": 713714.6903652066,
        "Argument of Periapsis(deg)": 0.011330173180381662,
        "Eccentricity": 0.0,
        "Inclination(deg)": 45.0,
        "Latitude(deg)": -35.05574268193814,
        "Longitude(deg)": -95.02762086910829,
        "Mean Anomaly(deg)": 306.018015507231,
        "RAAN(deg)": 49.989304647707364,
        "Satellite Name": "Constellation 1 238",
        "Satellite Number": 238,
        "Semi-Major Axis(m)": 7083131.272910544,
        "Time(s)": 189
    }
]